CCSDS_OMM_VERS = 2.0
CREATION_DATE  = 
ORIGINATOR     = 

OBJECT_NAME    = UNKNOWN
OBJECT_ID      = 
CENTER_NAME    = EARTH
REF_FRAME      = TEME
TIME_SYSTEM    = UTC
MEAN_ELEMENT_THEORY = SGP/SGP4

EPOCH          = 2025-12-29T02:33:16.337376
MEAN_MOTION    = 14.34890483
ECCENTRICITY   = .0135614
INCLINATION    = 73.2812
RA_OF_ASC_NODE = 150.3536
ARG_OF_PERICENTER = 277.4704
MEAN_ANOMALY   = 204.3971

EPHEMERIS_TYPE = 0
CLASSIFICATION_TYPE = U
NORAD_CAT_ID   = 82524
ELEMENT_SET_NO = 999
REV_AT_EPOCH   = 57938
BSTAR          = .34641E-2
MEAN_MOTION_DOT = .10906E-3
MEAN_MOTION_DDOT = 0

CCSDS_OMM_VERS = 2.0
CREATION_DATE  = 
ORIGINATOR     = 

OBJECT_NAME    = UNKNOWN
OBJECT_ID      = 
CENTER_NAME    = EARTH
REF_FRAME      = TEME
TIME_SYSTEM    = UTC
MEAN_ELEMENT_THEORY = SGP/SGP4

EPOCH          = 2025-12-30T00:06:39.134304
MEAN_MOTION    = 13.41124446
ECCENTRICITY   = .0239354
INCLINATION    = 99.7894
RA_OF_ASC_NODE = 86.8562
ARG_OF_PERICENTER = 198.4776
MEAN_ANOMALY   = 339.9026

EPHEMERIS_TYPE = 0
CLASSIFICATION_TYPE = U
NORAD_CAT_ID   = 82529
ELEMENT_SET_NO = 999
REV_AT_EPOCH   = 59205
BSTAR          = .95118E-3
MEAN_MOTION_DOT = .58E-5
MEAN_MOTION_DDOT = 0

CCSDS_OMM_VERS = 2.0
CREATION_DATE  = 
ORIGINATOR     = 

OBJECT_NAME    = UNKNOWN
OBJECT_ID      = 
CENTER_NAME    = EARTH
REF_FRAME      = TEME
TIME_SYSTEM    = UTC
MEAN_ELEMENT_THEORY = SGP/SGP4

EPOCH          = 2025-12-28T15:05:05.225280
MEAN_MOTION    = 13.90689818
ECCENTRICITY   = .0010358
INCLINATION    = 99.9907
RA_OF_ASC_NODE = 306.3587
ARG_OF_PERICENTER = 271.2339
MEAN_ANOMALY   = 268.1289

EPHEMERIS_TYPE = 0
CLASSIFICATION_TYPE = U
NORAD_CAT_ID   = 82560
ELEMENT_SET_NO = 999
REV_AT_EPOCH   = 61407
BSTAR          = .13735E-2
MEAN_MOTION_DOT = .1664E-4
MEAN_MOTION_DDOT = 0

CCSDS_OMM_VERS = 2.0
CREATION_DATE  = 
ORIGINATOR     = 

OBJECT_NAME    = UNKNOWN
OBJECT_ID      = 
CENTER_NAME    = EARTH
REF_FRAME      = TEME
TIME_SYSTEM    = UTC
MEAN_ELEMENT_THEORY = SGP/SGP4

EPOCH          = 2025-12-23T02:09:14.496768
MEAN_MOTION    = 14.35768617
ECCENTRICITY   = .0098191
INCLINATION    = 66.7703
RA_OF_ASC_NODE = 120.7388
ARG_OF_PERICENTER = 299.9298
MEAN_ANOMALY   = 59.2079

EPHEMERIS_TYPE = 0
CLASSIFICATION_TYPE = U
NORAD_CAT_ID   = 82597
ELEMENT_SET_NO = 999
REV_AT_EPOCH   = 63046
BSTAR          = .66057E-3
MEAN_MOTION_DOT = .1933E-4
MEAN_MOTION_DDOT = 0

CCSDS_OMM_VERS = 2.0
CREATION_DATE  = 
ORIGINATOR     = 

OBJECT_NAME    = UNKNOWN
OBJECT_ID      = 
CENTER_NAME    = EARTH
REF_FRAME      = TEME
TIME_SYSTEM    = UTC
MEAN_ELEMENT_THEORY = SGP/SGP4

EPOCH          = 2025-12-26T07:54:47.585088
MEAN_MOTION    = 14.49415290
ECCENTRICITY   = .003824
INCLINATION    = 74.0257
RA_OF_ASC_NODE = 218.1300
ARG_OF_PERICENTER = 159.9483
MEAN_ANOMALY   = 200.3190

EPHEMERIS_TYPE = 0
CLASSIFICATION_TYPE = U
NORAD_CAT_ID   = 82617
ELEMENT_SET_NO = 999
REV_AT_EPOCH   = 63879
BSTAR          = .15414E-3
MEAN_MOTION_DOT = .567E-5
MEAN_MOTION_DDOT = 0

CCSDS_OMM_VERS = 2.0
CREATION_DATE  = 
ORIGINATOR     = 

OBJECT_NAME    = UNKNOWN
OBJECT_ID      = 
CENTER_NAME    = EARTH
REF_FRAME      = TEME
TIME_SYSTEM    = UTC
MEAN_ELEMENT_THEORY = SGP/SGP4

EPOCH          = 2025-12-11T16:39:54.766368
MEAN_MOTION    = 13.16298541
ECCENTRICITY   = .0011132
INCLINATION    = 82.4766
RA_OF_ASC_NODE = 249.3808
ARG_OF_PERICENTER = 82.1399
MEAN_ANOMALY   = 307.0148

EPHEMERIS_TYPE = 0
CLASSIFICATION_TYPE = U
NORAD_CAT_ID   = 82627
ELEMENT_SET_NO = 999
REV_AT_EPOCH   = 57869
BSTAR          = .21637E-2
MEAN_MOTION_DOT = .836E-5
MEAN_MOTION_DDOT = 0

CCSDS_OMM_VERS = 2.0
CREATION_DATE  = 
ORIGINATOR     = 

OBJECT_NAME    = UNKNOWN
OBJECT_ID      = 
CENTER_NAME    = EARTH
REF_FRAME      = TEME
TIME_SYSTEM    = UTC
MEAN_ELEMENT_THEORY = SGP/SGP4

EPOCH          = 2025-12-30T13:30:38.742624
MEAN_MOTION    = 14.07270644
ECCENTRICITY   = .0134526
INCLINATION    = 98.9750
RA_OF_ASC_NODE = 274.9863
ARG_OF_PERICENTER = 187.0061
MEAN_ANOMALY   = 172.9230

EPHEMERIS_TYPE = 0
CLASSIFICATION_TYPE = U
NORAD_CAT_ID   = 82642
ELEMENT_SET_NO = 999
REV_AT_EPOCH   = 61864
BSTAR          = .89851E-3
MEAN_MOTION_DOT = .1593E-4
MEAN_MOTION_DDOT = 0

CCSDS_OMM_VERS = 2.0
CREATION_DATE  = 
ORIGINATOR     = 

OBJECT_NAME    = UNKNOWN
OBJECT_ID      = 
CENTER_NAME    = EARTH
REF_FRAME      = TEME
TIME_SYSTEM    = UTC
MEAN_ELEMENT_THEORY = SGP/SGP4

EPOCH          = 2025-12-30T03:55:12.251136
MEAN_MOTION    = 14.20169707
ECCENTRICITY   = .0209852
INCLINATION    = 98.1719
RA_OF_ASC_NODE = 71.8054
ARG_OF_PERICENTER = 345.2137
MEAN_ANOMALY   = 14.2963

EPHEMERIS_TYPE = 0
CLASSIFICATION_TYPE = U
NORAD_CAT_ID   = 82683
ELEMENT_SET_NO = 999
REV_AT_EPOCH   = 46474
BSTAR          = .61795E-3
MEAN_MOTION_DOT = .1602E-4
MEAN_MOTION_DDOT = 0

CCSDS_OMM_VERS = 2.0
CREATION_DATE  = 
ORIGINATOR     = 

OBJECT_NAME    = UNKNOWN
OBJECT_ID      = 
CENTER_NAME    = EARTH
REF_FRAME      = TEME
TIME_SYSTEM    = UTC
MEAN_ELEMENT_THEORY = SGP/SGP4

EPOCH          = 2025-12-27T04:07:33.360960
MEAN_MOTION    = 13.69589402
ECCENTRICITY   = .0045461
INCLINATION    = 100.5299
RA_OF_ASC_NODE = 326.0100
ARG_OF_PERICENTER = 347.9533
MEAN_ANOMALY   = 12.0519

EPHEMERIS_TYPE = 0
CLASSIFICATION_TYPE = U
NORAD_CAT_ID   = 82693
ELEMENT_SET_NO = 999
REV_AT_EPOCH   = 55573
BSTAR          = .37457E-2
MEAN_MOTION_DOT = .3241E-4
MEAN_MOTION_DDOT = 0

CCSDS_OMM_VERS = 2.0
CREATION_DATE  = 
ORIGINATOR     = 

OBJECT_NAME    = UNKNOWN
OBJECT_ID      = 
CENTER_NAME    = EARTH
REF_FRAME      = TEME
TIME_SYSTEM    = UTC
MEAN_ELEMENT_THEORY = SGP/SGP4

EPOCH          = 2025-12-27T00:28:07.305600
MEAN_MOTION    = 13.29479816
ECCENTRICITY   = .0684862
INCLINATION    = 61.6124
RA_OF_ASC_NODE = 112.2353
ARG_OF_PERICENTER = 294.9306
MEAN_ANOMALY   = 58.2040

EPHEMERIS_TYPE = 0
CLASSIFICATION_TYPE = U
NORAD_CAT_ID   = 82698
ELEMENT_SET_NO = 999
REV_AT_EPOCH   = 54027
BSTAR          = .13242E-2
MEAN_MOTION_DOT = .2192E-4
MEAN_MOTION_DDOT = 0

CCSDS_OMM_VERS = 2.0
CREATION_DATE  = 
ORIGINATOR     = 

OBJECT_NAME    = UNKNOWN
OBJECT_ID      = 
CENTER_NAME    = EARTH
REF_FRAME      = TEME
TIME_SYSTEM    = UTC
MEAN_ELEMENT_THEORY = SGP/SGP4

EPOCH          = 2025-12-25T01:01:28.667424
MEAN_MOTION    = 12.90592150
ECCENTRICITY   = .0063016
INCLINATION    = 102.1623
RA_OF_ASC_NODE = 203.3844
ARG_OF_PERICENTER = 263.8404
MEAN_ANOMALY   = 95.5505

EPHEMERIS_TYPE = 0
CLASSIFICATION_TYPE = U
NORAD_CAT_ID   = 82708
ELEMENT_SET_NO = 999
REV_AT_EPOCH   = 52510
BSTAR          = .36526E-2
MEAN_MOTION_DOT = .918E-5
MEAN_MOTION_DDOT = 0

CCSDS_OMM_VERS = 2.0
CREATION_DATE  = 
ORIGINATOR     = 

OBJECT_NAME    = UNKNOWN
OBJECT_ID      = 
CENTER_NAME    = EARTH
REF_FRAME      = TEME
TIME_SYSTEM    = UTC
MEAN_ELEMENT_THEORY = SGP/SGP4

EPOCH          = 2025-12-26T14:53:32.841600
MEAN_MOTION    = 12.17757215
ECCENTRICITY   = .0832302
INCLINATION    = 67.9646
RA_OF_ASC_NODE = 121.8956
ARG_OF_PERICENTER = 1.3678
MEAN_ANOMALY   = 358.9333

EPHEMERIS_TYPE = 0
CLASSIFICATION_TYPE = U
NORAD_CAT_ID   = 82729
ELEMENT_SET_NO = 999
REV_AT_EPOCH   = 53689
BSTAR          = .1569E-2
MEAN_MOTION_DOT = .431E-5
MEAN_MOTION_DDOT = 0

