UNKNOWN                 
1 82524U          25363.10643909  .00010906  00000+0  34641-2 0  9997
2 82524  73.2812 150.3536 0135614 277.4704 204.3971 14.34890483579382
UNKNOWN                 
1 82529U          25364.00461961  .00000580  00000+0  95118-3 0  9992
2 82529  99.7894  86.8562 0239354 198.4776 339.9026 13.41124446592050
UNKNOWN                 
1 82560U          25362.62853270  .00001664  00000+0  13735-2 0  9999
2 82560  99.9907 306.3587 0010358 271.2339 268.1289 13.90689818614079
UNKNOWN                 
1 82597U          25357.08975112  .00001933  00000+0  66057-3 0  9998
2 82597  66.7703 120.7388 0098191 299.9298  59.2079 14.35768617630466
UNKNOWN                 
1 82617U          25360.32971742  .00000567  00000+0  15414-3 0  9990
2 82617  74.0257 218.1300 0038240 159.9483 200.3190 14.49415290638799
UNKNOWN                 
1 82627U          25345.69438387  .00000836  00000+0  21637-2 0  9999
2 82627  82.4766 249.3808 0011132  82.1399 307.0148 13.16298541578692
UNKNOWN                 
1 82642U          25364.56294841  .00001593  00000+0  89851-3 0  9992
2 82642  98.9750 274.9863 0134526 187.0061 172.9230 14.07270644618649
UNKNOWN                 
1 82683U          25364.16333624  .00001602  00000+0  61795-3 0  9994
2 82683  98.1719  71.8054 0209852 345.2137  14.2963 14.20169707464747
UNKNOWN                 
1 82693U          25361.17191390  .00003241  00000+0  37457-2 0  9993
2 82693 100.5299 326.0100 0045461 347.9533  12.0519 13.69589402555732
UNKNOWN                 
1 82698U          25361.01952900  .00002192  00000+0  13242-2 0  9993
2 82698  61.6124 112.2353 0684862 294.9306  58.2040 13.29479816540276
UNKNOWN                 
1 82708U          25359.04269291  .00000918  00000+0  36526-2 0  9993
2 82708 102.1623 203.3844 0063016 263.8404  95.5505 12.90592150525105
UNKNOWN                 
1 82729U          25360.62051900  .00000431  00000+0  15690-2 0  9997
2 82729  67.9646 121.8956 0832302   1.3678 358.9333 12.17757215536896
